[{"OBJECT_NAME":"OBJECT E","OBJECT_ID":"2024-092E","EPOCH":"2026-03-09T21:25:47.709120","MEAN_MOTION":15.32997986,"ECCENTRICITY":0.0008531,"INCLINATION":97.642,"RA_OF_ASC_NODE":198.2099,"ARG_OF_PERICENTER":142.2606,"MEAN_ANOMALY":217.9236,"EPHEMERIS_TYPE":0,"CLASSIFICATION_TYPE":"U","NORAD_CAT_ID":59777,"ELEMENT_SET_NO":999,"REV_AT_EPOCH":10051,"BSTAR":0.00078641119,"MEAN_MOTION_DOT":0.00025066,"MEAN_MOTION_DDOT":0},{"OBJECT_NAME":"STARLINK-32896","OBJECT_ID":"2025-029M","EPOCH":"2026-03-09T18:14:49.396416","MEAN_MOTION":15.30198285,"ECCENTRICITY":0.000128,"INCLINATION":53.1581,"RA_OF_ASC_NODE":232.4674,"ARG_OF_PERICENTER":66.5095,"MEAN_ANOMALY":293.604,"EPHEMERIS_TYPE":0,"CLASSIFICATION_TYPE":"U","NORAD_CAT_ID":62959,"ELEMENT_SET_NO":999,"REV_AT_EPOCH":6132,"BSTAR":0.00082153464,"MEAN_MOTION_DOT":0.0002405,"MEAN_MOTION_DDOT":0}]
